ORBCOMM FM20 [+]        
1 25416U 98046D   23356.71973844  .00001312  00000+0  50851-3 0  9995
2 25416  44.9936 224.8980 0001147  23.7312 336.3588 14.34709152326293
ORBCOMM FM16 [-]        
1 25417U 98046E   23356.90325334  .00001930  00000+0  71352-3 0  9997
2 25417  44.9929 220.7443 0004247  84.0009 276.1322 14.35499520326240
ORBCOMM FM15 [-]        
1 25418U 98046F   23356.76489064  .00001784  00000+0  66632-3 0  9995
2 25418  44.9965 225.1431 0003792  82.0254 278.1024 14.35251979326235
ORBCOMM FM14 [-]        
1 25419U 98046G   23356.75408522  .00001903  00000+0  70586-3 0  9991
2 25419  44.9957 224.4716 0002858  68.4250  36.1541 14.35372729326188
ORBCOMM FM13 [+]        
1 25420U 98046H   23356.78533330  .00001526  00000+0  58243-3 0  9999
2 25420  44.9970 228.4799 0004977  68.2546 291.8831 14.34777599325263
ORBCOMM FM21 [-]        
1 25475U 98053A   23356.94188312  .00001780  00000+0  67132-3 0  9990
2 25475  45.0103 311.9022 0002000 325.5098  34.5619 14.34780521319635
ORBCOMM FM22 [-]        
1 25476U 98053B   23356.96497195  .00002102  00000+0  77747-3 0  9997
2 25476  45.0096 309.5846 0003347 352.8672   7.2127 14.35190675319659
ORBCOMM FM23 [-]        
1 25477U 98053C   23356.97232881  .00001983  00000+0  74236-3 0  9994
2 25477  45.0101 314.2088 0002781 342.5115  17.5636 14.34776300319762
